{
  "type": "FeatureCollection",
  "features": [
    {
      "type": "Feature",
      "properties": {
        "norad_id": 67018,
        "name": "STARLINK-36106",
        "group": "last-30-days",
        "lat": 42.40633935769078,
        "lon": 85.33431423061178,
        "alt_km": 345.33000651896236,
        "timestamp": "2025-12-26T05:31:11.219777+00:00",
        "meta_object_name": "STARLINK-36106",
        "meta_object_id": "2025-293R",
        "meta_epoch": "2025-12-25T22:00:01.999584",
        "meta_mean_motion": 15.75024015,
        "meta_eccentricity": 0.00033629,
        "meta_inclination": 69.9944,
        "meta_ra_of_asc_node": 285.6577,
        "meta_arg_of_pericenter": 266.8797,
        "meta_mean_anomaly": 251.9586,
        "meta_ephemeris_type": 0,
        "meta_classification_type": "U",
        "meta_norad_cat_id": 67018,
        "meta_element_set_no": 999,
        "meta_rev_at_epoch": 234,
        "meta_bstar": -0.012756852,
        "meta_mean_motion_dot": -0.01686661,
        "meta_mean_motion_ddot": 0,
        "tle_line1": "1 67018U 25293R   25359.91668981 -.01686661  00000+0 -12757-1 0  9993",
        "tle_line2": "2 67018  69.9944 285.6577 0003362 266.8797 251.9586 15.75024015  2349"
      },
      "geometry": {
        "type": "Point",
        "coordinates": [
          85.33431423061178,
          42.40633935769078
        ]
      }
    },
    {
      "type": "Feature",
      "properties": {
        "norad_id": 67019,
        "name": "STARLINK-35688",
        "group": "last-30-days",
        "lat": 40.45613877483963,
        "lon": 86.66630543825865,
        "alt_km": 345.59861429280863,
        "timestamp": "2025-12-26T05:31:11.219787+00:00",
        "meta_object_name": "STARLINK-35688",
        "meta_object_id": "2025-293S",
        "meta_epoch": "2025-12-25T22:00:01.999584",
        "meta_mean_motion": 15.75014412,
        "meta_eccentricity": 0.0003355,
        "meta_inclination": 69.9941,
        "meta_ra_of_asc_node": 285.6545,
        "meta_arg_of_pericenter": 266.8291,
        "meta_mean_anomaly": 254.2111,
        "meta_ephemeris_type": 0,
        "meta_classification_type": "U",
        "meta_norad_cat_id": 67019,
        "meta_element_set_no": 999,
        "meta_rev_at_epoch": 242,
        "meta_bstar": -0.012789905,
        "meta_mean_motion_dot": -0.01689894,
        "meta_mean_motion_ddot": 0,
        "tle_line1": "1 67019U 25293S   25359.91668981 -.01689894  00000+0 -12790-1 0  9992",
        "tle_line2": "2 67019  69.9941 285.6545 0003355 266.8291 254.2111 15.75014412  2422"
      },
      "geometry": {
        "type": "Point",
        "coordinates": [
          86.66630543825865,
          40.45613877483963
        ]
      }
    },
    {
      "type": "Feature",
      "properties": {
        "norad_id": 67020,
        "name": "STARLINK-36172",
        "group": "last-30-days",
        "lat": 38.1762567383527,
        "lon": 88.11882136706814,
        "alt_km": 346.03915421113834,
        "timestamp": "2025-12-26T05:31:11.219797+00:00",
        "meta_object_name": "STARLINK-36172",
        "meta_object_id": "2025-293T",
        "meta_epoch": "2025-12-25T22:00:01.999584",
        "meta_mean_motion": 15.749861,
        "meta_eccentricity": 0.00034946,
        "meta_inclination": 69.9943,
        "meta_ra_of_asc_node": 285.652,
        "meta_arg_of_pericenter": 267.4097,
        "meta_mean_anomaly": 256.2031,
        "meta_ephemeris_type": 0,
        "meta_classification_type": "U",
        "meta_norad_cat_id": 67020,
        "meta_element_set_no": 999,
        "meta_rev_at_epoch": 234,
        "meta_bstar": -0.012800404,
        "meta_mean_motion_dot": -0.01689394,
        "meta_mean_motion_ddot": 0,
        "tle_line1": "1 67020U 25293T   25359.91668981 -.01689394  00000+0 -12800-1 0  9991",
        "tle_line2": "2 67020  69.9943 285.6520 0003494 267.4097 256.2031 15.74986100  2349"
      },
      "geometry": {
        "type": "Point",
        "coordinates": [
          88.11882136706814,
          38.1762567383527
        ]
      }
    },
    {
      "type": "Feature",
      "properties": {
        "norad_id": 67021,
        "name": "STARLINK-36184",
        "group": "last-30-days",
        "lat": 36.01342320479082,
        "lon": 89.40493025540533,
        "alt_km": 346.2336256140561,
        "timestamp": "2025-12-26T05:31:11.219807+00:00",
        "meta_object_name": "STARLINK-36184",
        "meta_object_id": "2025-293U",
        "meta_epoch": "2025-12-25T22:00:01.999584",
        "meta_mean_motion": 15.74958421,
        "meta_eccentricity": 0.00033786,
        "meta_inclination": 69.9942,
        "meta_ra_of_asc_node": 285.6492,
        "meta_arg_of_pericenter": 264.6163,
        "meta_mean_anomaly": 261.4176,
        "meta_ephemeris_type": 0,
        "meta_classification_type": "U",
        "meta_norad_cat_id": 67021,
        "meta_element_set_no": 999,
        "meta_rev_at_epoch": 234,
        "meta_bstar": -0.012768931,
        "meta_mean_motion_dot": -0.01683798,
        "meta_mean_motion_ddot": 0,
        "tle_line1": "1 67021U 25293U   25359.91668981 -.01683798  00000+0 -12769-1 0  9998",
        "tle_line2": "2 67021  69.9942 285.6492 0003378 264.6163 261.4176 15.74958421  2344"
      },
      "geometry": {
        "type": "Point",
        "coordinates": [
          89.40493025540533,
          36.01342320479082
        ]
      }
    },
    {
      "type": "Feature",
      "properties": {
        "norad_id": 67022,
        "name": "STARLINK-36209",
        "group": "last-30-days",
        "lat": 33.60368276603895,
        "lon": 90.74864104821376,
        "alt_km": 346.67298054941784,
        "timestamp": "2025-12-26T05:31:11.219820+00:00",
        "meta_object_name": "STARLINK-36209",
        "meta_object_id": "2025-293V",
        "meta_epoch": "2025-12-25T22:00:01.999584",
        "meta_mean_motion": 15.74929324,
        "meta_eccentricity": 0.0003419,
        "meta_inclination": 69.9942,
        "meta_ra_of_asc_node": 285.646,
        "meta_arg_of_pericenter": 265.3418,
        "meta_mean_anomaly": 263.3767,
        "meta_ephemeris_type": 0,
        "meta_classification_type": "U",
        "meta_norad_cat_id": 67022,
        "meta_element_set_no": 999,
        "meta_rev_at_epoch": 234,
        "meta_bstar": -0.01284376,
        "meta_mean_motion_dot": -0.01690663,
        "meta_mean_motion_ddot": 0,
        "tle_line1": "1 67022U 25293V   25359.91668981 -.01690663  00000+0 -12844-1 0  9992",
        "tle_line2": "2 67022  69.9942 285.6460 0003419 265.3418 263.3767 15.74929324  2344"
      },
      "geometry": {
        "type": "Point",
        "coordinates": [
          90.74864104821376,
          33.60368276603895
        ]
      }
    },
    {
      "type": "Feature",
      "properties": {
        "norad_id": 67023,
        "name": "STARLINK-36191",
        "group": "last-30-days",
        "lat": 31.474441497613956,
        "lon": 91.86752923522846,
        "alt_km": 347.0054348837448,
        "timestamp": "2025-12-26T05:31:11.219830+00:00",
        "meta_object_name": "STARLINK-36191",
        "meta_object_id": "2025-293W",
        "meta_epoch": "2025-12-25T22:00:01.999584",
        "meta_mean_motion": 15.74907832,
        "meta_eccentricity": 0.00034507,
        "meta_inclination": 69.9939,
        "meta_ra_of_asc_node": 285.6424,
        "meta_arg_of_pericenter": 265.3156,
        "meta_mean_anomaly": 265.7542,
        "meta_ephemeris_type": 0,
        "meta_classification_type": "U",
        "meta_norad_cat_id": 67023,
        "meta_element_set_no": 999,
        "meta_rev_at_epoch": 222,
        "meta_bstar": -0.012835688,
        "meta_mean_motion_dot": -0.01688344,
        "meta_mean_motion_ddot": 0,
        "tle_line1": "1 67023U 25293W   25359.91668981 -.01688344  00000+0 -12836-1 0  9997",
        "tle_line2": "2 67023  69.9939 285.6424 0003450 265.3156 265.7542 15.74907832  2229"
      },
      "geometry": {
        "type": "Point",
        "coordinates": [
          91.86752923522846,
          31.474441497613956
        ]
      }
    },
    {
      "type": "Feature",
      "properties": {
        "norad_id": 67024,
        "name": "STARLINK-36192",
        "group": "last-30-days",
        "lat": 29.160775725381146,
        "lon": 93.02362961438101,
        "alt_km": 347.3254659838376,
        "timestamp": "2025-12-26T05:31:11.219840+00:00",
        "meta_object_name": "STARLINK-36192",
        "meta_object_id": "2025-293X",
        "meta_epoch": "2025-12-25T22:00:01.999584",
        "meta_mean_motion": 15.74882107,
        "meta_eccentricity": 0.00033946,
        "meta_inclination": 69.9944,
        "meta_ra_of_asc_node": 285.6399,
        "meta_arg_of_pericenter": 264.5484,
        "meta_mean_anomaly": 269.0689,
        "meta_ephemeris_type": 0,
        "meta_classification_type": "U",
        "meta_norad_cat_id": 67024,
        "meta_element_set_no": 999,
        "meta_rev_at_epoch": 234,
        "meta_bstar": -0.012863097,
        "meta_mean_motion_dot": -0.01689798,
        "meta_mean_motion_ddot": 0,
        "tle_line1": "1 67024U 25293X   25359.91668981 -.01689798  00000+0 -12863-1 0  9992",
        "tle_line2": "2 67024  69.9944 285.6399 0003394 264.5484 269.0689 15.74882107  2348"
      },
      "geometry": {
        "type": "Point",
        "coordinates": [
          93.02362961438101,
          29.160775725381146
        ]
      }
    }
  ]
}